{
  "type": "FeatureCollection",
  "features": [
    {
      "type": "Feature",
      "properties": {
        "norad_id": 31744,
        "name": "FENGYUN 1C DEB",
        "group": "fengyun-1c-debris",
        "lat": -48.55098681235677,
        "lon": -84.39573913902285,
        "alt_km": 1042.5584519373888,
        "timestamp": "2025-12-20T22:39:10.909295+00:00",
        "meta_object_name": "FENGYUN 1C DEB",
        "meta_object_id": "1999-025CET",
        "meta_epoch": "2025-12-17T13:54:12.794400",
        "meta_mean_motion": 14.16604274,
        "meta_eccentricity": 0.03151073,
        "meta_inclination": 99.3037,
        "meta_ra_of_asc_node": 102.7793,
        "meta_arg_of_pericenter": 30.7507,
        "meta_mean_anomaly": 331.1716,
        "meta_ephemeris_type": 0,
        "meta_classification_type": "U",
        "meta_norad_cat_id": 31744,
        "meta_element_set_no": 999,
        "meta_rev_at_epoch": 94683,
        "meta_bstar": 0.00098574439,
        "meta_mean_motion_dot": 3.146e-05,
        "meta_mean_motion_ddot": 0,
        "tle_line1": "1 31744U 99025CET 25351.57931475  .00003146  00000+0  98574-3 0  9990",
        "tle_line2": "2 31744  99.3037 102.7793 0315107  30.7507 331.1716 14.16604274946837"
      },
      "geometry": {
        "type": "Point",
        "coordinates": [
          -84.39573913902285,
          -48.55098681235677
        ]
      }
    },
    {
      "type": "Feature",
      "properties": {
        "norad_id": 31746,
        "name": "FENGYUN 1C DEB",
        "group": "fengyun-1c-debris",
        "lat": -74.05262160093244,
        "lon": 149.97568378128673,
        "alt_km": 648.8434203336492,
        "timestamp": "2025-12-20T22:39:10.909304+00:00",
        "meta_object_name": "FENGYUN 1C DEB",
        "meta_object_id": "1999-025CEV",
        "meta_epoch": "2025-12-18T07:35:38.116032",
        "meta_mean_motion": 14.77023131,
        "meta_eccentricity": 0.00230437,
        "meta_inclination": 98.5884,
        "meta_ra_of_asc_node": 115.2503,
        "meta_arg_of_pericenter": 190.3404,
        "meta_mean_anomaly": 169.7333,
        "meta_ephemeris_type": 0,
        "meta_classification_type": "U",
        "meta_norad_cat_id": 31746,
        "meta_element_set_no": 999,
        "meta_rev_at_epoch": 97110,
        "meta_bstar": 0.0030928277,
        "meta_mean_motion_dot": 0.00021911,
        "meta_mean_motion_ddot": 0,
        "tle_line1": "1 31746U 99025CEV 25352.31641338  .00021911  00000+0  30928-2 0  9999",
        "tle_line2": "2 31746  98.5884 115.2503 0023043 190.3404 169.7333 14.77023131971104"
      },
      "geometry": {
        "type": "Point",
        "coordinates": [
          149.97568378128673,
          -74.05262160093244
        ]
      }
    },
    {
      "type": "Feature",
      "properties": {
        "norad_id": 31752,
        "name": "FENGYUN 1C DEB",
        "group": "fengyun-1c-debris",
        "lat": -47.52044956018663,
        "lon": -122.44033663691783,
        "alt_km": 883.6617209578135,
        "timestamp": "2025-12-20T22:39:10.909313+00:00",
        "meta_object_name": "FENGYUN 1C DEB",
        "meta_object_id": "1999-025CFB",
        "meta_epoch": "2025-12-18T10:55:16.632768",
        "meta_mean_motion": 13.93070684,
        "meta_eccentricity": 0.03557691,
        "meta_inclination": 98.9786,
        "meta_ra_of_asc_node": 65.0821,
        "meta_arg_of_pericenter": 317.9795,
        "meta_mean_anomaly": 39.4568,
        "meta_ephemeris_type": 0,
        "meta_classification_type": "U",
        "meta_norad_cat_id": 31752,
        "meta_element_set_no": 999,
        "meta_rev_at_epoch": 93670,
        "meta_bstar": 0.0010716417,
        "meta_mean_motion_dot": 2.302e-05,
        "meta_mean_motion_ddot": 0,
        "tle_line1": "1 31752U 99025CFB 25352.45505362  .00002302  00000+0  10716-2 0  9993",
        "tle_line2": "2 31752  98.9786  65.0821 0355769 317.9795  39.4568 13.93070684936706"
      },
      "geometry": {
        "type": "Point",
        "coordinates": [
          -122.44033663691783,
          -47.52044956018663
        ]
      }
    },
    {
      "type": "Feature",
      "properties": {
        "norad_id": 31753,
        "name": "FENGYUN 1C DEB",
        "group": "fengyun-1c-debris",
        "lat": 7.043725952003296,
        "lon": -151.07834598543556,
        "alt_km": 725.5322797776153,
        "timestamp": "2025-12-20T22:39:10.909323+00:00",
        "meta_object_name": "FENGYUN 1C DEB",
        "meta_object_id": "1999-025CFC",
        "meta_epoch": "2025-12-18T08:58:33.123936",
        "meta_mean_motion": 14.18645319,
        "meta_eccentricity": 0.01593678,
        "meta_inclination": 98.6321,
        "meta_ra_of_asc_node": 25.344,
        "meta_arg_of_pericenter": 157.5759,
        "meta_mean_anomaly": 217.1796,
        "meta_ephemeris_type": 0,
        "meta_classification_type": "U",
        "meta_norad_cat_id": 31753,
        "meta_element_set_no": 999,
        "meta_rev_at_epoch": 96099,
        "meta_bstar": 0.00023980912,
        "meta_mean_motion_dot": 5.22e-06,
        "meta_mean_motion_ddot": 0,
        "tle_line1": "1 31753U 99025CFC 25352.37399449  .00000522  00000+0  23981-3 0  9993",
        "tle_line2": "2 31753  98.6321  25.3440 0159367 157.5759 217.1796 14.18645319960996"
      },
      "geometry": {
        "type": "Point",
        "coordinates": [
          -151.07834598543556,
          7.043725952003296
        ]
      }
    },
    {
      "type": "Feature",
      "properties": {
        "norad_id": 31754,
        "name": "FENGYUN 1C DEB",
        "group": "fengyun-1c-debris",
        "lat": -61.64885471201617,
        "lon": 123.5590977187662,
        "alt_km": 735.2276101083671,
        "timestamp": "2025-12-20T22:39:10.909331+00:00",
        "meta_object_name": "FENGYUN 1C DEB",
        "meta_object_id": "1999-025CFD",
        "meta_epoch": "2025-12-19T15:33:43.119936",
        "meta_mean_motion": 14.4229945,
        "meta_eccentricity": 0.00493482,
        "meta_inclination": 99.0407,
        "meta_ra_of_asc_node": 319.3487,
        "meta_arg_of_pericenter": 196.9555,
        "meta_mean_anomaly": 162.9985,
        "meta_ephemeris_type": 0,
        "meta_classification_type": "U",
        "meta_norad_cat_id": 31754,
        "meta_element_set_no": 999,
        "meta_rev_at_epoch": 97089,
        "meta_bstar": 0.00063748904,
        "meta_mean_motion_dot": 2.086e-05,
        "meta_mean_motion_ddot": 0,
        "tle_line1": "1 31754U 99025CFD 25353.64841574  .00002086  00000+0  63749-3 0  9999",
        "tle_line2": "2 31754  99.0407 319.3487 0049348 196.9555 162.9985 14.42299450970897"
      },
      "geometry": {
        "type": "Point",
        "coordinates": [
          123.5590977187662,
          -61.64885471201617
        ]
      }
    },
    {
      "type": "Feature",
      "properties": {
        "norad_id": 31757,
        "name": "FENGYUN 1C DEB",
        "group": "fengyun-1c-debris",
        "lat": -45.07473753165802,
        "lon": 25.68380640313695,
        "alt_km": 915.2572802111554,
        "timestamp": "2025-12-20T22:39:10.909340+00:00",
        "meta_object_name": "FENGYUN 1C DEB",
        "meta_object_id": "1999-025CFG",
        "meta_epoch": "2025-12-19T19:34:47.252352",
        "meta_mean_motion": 14.07925739,
        "meta_eccentricity": 0.02177667,
        "meta_inclination": 98.7671,
        "meta_ra_of_asc_node": 15.6869,
        "meta_arg_of_pericenter": 64.1846,
        "meta_mean_anomaly": 298.1612,
        "meta_ephemeris_type": 0,
        "meta_classification_type": "U",
        "meta_norad_cat_id": 31757,
        "meta_element_set_no": 999,
        "meta_rev_at_epoch": 63981,
        "meta_bstar": 9.3425243e-05,
        "meta_mean_motion_dot": 1.55e-06,
        "meta_mean_motion_ddot": 0,
        "tle_line1": "1 31757U 99025CFG 25353.81582468  .00000155  00000+0  93425-4 0  9995",
        "tle_line2": "2 31757  98.7671  15.6869 0217766  64.1846 298.1612 14.07925739639819"
      },
      "geometry": {
        "type": "Point",
        "coordinates": [
          25.68380640313695,
          -45.07473753165802
        ]
      }
    },
    {
      "type": "Feature",
      "properties": {
        "norad_id": 31758,
        "name": "FENGYUN 1C DEB",
        "group": "fengyun-1c-debris",
        "lat": 51.75390964927732,
        "lon": -166.0635246052921,
        "alt_km": 635.0869804784033,
        "timestamp": "2025-12-20T22:39:10.909350+00:00",
        "meta_object_name": "FENGYUN 1C DEB",
        "meta_object_id": "1999-025CFH",
        "meta_epoch": "2025-12-18T23:28:15.902112",
        "meta_mean_motion": 14.42159682,
        "meta_eccentricity": 0.03174606,
        "meta_inclination": 98.0601,
        "meta_ra_of_asc_node": 1.719,
        "meta_arg_of_pericenter": 71.3121,
        "meta_mean_anomaly": 292.2248,
        "meta_ephemeris_type": 0,
        "meta_classification_type": "U",
        "meta_norad_cat_id": 31758,
        "meta_element_set_no": 999,
        "meta_rev_at_epoch": 94290,
        "meta_bstar": 0.0016276141,
        "meta_mean_motion_dot": 9.822e-05,
        "meta_mean_motion_ddot": 0,
        "tle_line1": "1 31758U 99025CFH 25352.97796183  .00009822  00000+0  16276-2 0  9990",
        "tle_line2": "2 31758  98.0601   1.7190 0317460  71.3121 292.2248 14.42159682942909"
      },
      "geometry": {
        "type": "Point",
        "coordinates": [
          -166.0635246052921,
          51.75390964927732
        ]
      }
    }
  ]
}